STARLINK-4729           
1 53804U 22111AH  23150.31700030 -.00000712  00000+0 -26659-4 0  9995
2 53804  53.2157 132.5985 0001139  84.0532 276.0590 15.08834321 40754
STARLINK-4763           
1 53805U 22111AJ  23150.21027900 -.00000751  00000+0 -29112-4 0  9993
2 53805  53.2171 123.3745 0001305  91.9878 268.1263 15.08838085 40062
STARLINK-4768           
1 53806U 22111AK  23150.18816797  .00000092  00000+0  23891-4 0  9994
2 53806  53.2166 123.2400 0001340  83.0685 277.0460 15.08839790 40872
BLUEWALKER 3            
1 53807U 22111AL  23150.27779648  .00003562  00000+0  17437-3 0  9991
2 53807  53.1965 155.1995 0012941 358.2084   1.8865 15.20716088 39723
CHINASAT 1E (ZX 1E)     
1 53813U 22112A   23150.54910469 -.00000132  00000+0  00000+0 0  9992
2 53813   0.8595 278.0144 0003032 147.7703 101.1038  1.00273464  2689
STRIX-1                 
1 53815U 22113A   23150.59240526  .00004813  00000+0  36220-3 0  9996
2 53815  97.6098 202.0875 0010781 139.0970 221.1066 15.02948022 38522
STARLINK-4749           
1 53818U 22114A   23150.35272069  .00008456  00000+0  43559-3 0  9991
2 53818  53.2179 174.7090 0005727 353.5302   6.5619 15.17186663 39849
STARLINK-4738           
1 53819U 22114B   23150.38835307 -.00000102  00000+0  11682-4 0  9999
2 53819  53.2151 177.6871 0001077  88.6766 271.4350 15.08834869 39701
STARLINK-4758           
1 53820U 22114C   23150.39107990 -.00000211  00000+0  48435-5 0  9990
2 53820  53.2150 177.7035 0001015  91.0771 269.0338 15.08833523 39706
STARLINK-4752           
1 53821U 22114D   23150.34000293 -.00000731  00000+0 -27867-4 0  9997
2 53821  53.2168 122.5260 0001202  84.6722 275.4407 15.08836062 40471
STARLINK-4748           
1 53823U 22114F   23150.36390992 -.00000045  00000+0  15227-4 0  9993
2 53823  53.2155 132.5902 0001139  82.3999 277.7122 15.08835426 40330
STARLINK-4757           
1 53824U 22114G   23150.31378576 -.00000457  00000+0 -10625-4 0  9998
2 53824  53.2153 177.9341 0001193  84.1317 275.9811 15.08834318 39605
STARLINK-4751           
1 53825U 22114H   23150.38371332 -.00000110  00000+0  11175-4 0  9995
2 53825  53.2148 177.6583 0000972  85.5453 274.5650 15.08835537 39706
STARLINK-4756           
1 53826U 22114J   23150.36528476 -.00000380  00000+0 -58132-5 0  9992
2 53826  53.2151 177.5441 0000803  94.5688 265.5396 15.08832823 39708
STARLINK-4764           
1 53827U 22114K   23150.37634107 -.00000327  00000+0 -24572-5 0  9995
2 53827  53.2148 177.6132 0001103  89.2605 270.8514 15.08832101 39707
STARLINK-4760           
1 53828U 22114L   23150.42784027 -.00000798  00000+0 -32064-4 0  9995
2 53828  53.2151 177.2255 0000858  77.7814 282.3274 15.08832440 39712
STARLINK-4759           
1 53829U 22114M   23150.37268378 -.00002949  00000+0 -16745-3 0  9993
2 53829  53.2159 177.5920 0001072  86.8214 273.2901 15.08806406 39705
