[{"OBJECT_NAME":"STARLINK-4729","OBJECT_ID":"2022-111AH","EPOCH":"2023-05-30T07:36:28.825920","MEAN_MOTION":15.08834321,"ECCENTRICITY":0.0001139,"INCLINATION":53.2157,"RA_OF_ASC_NODE":132.5985,"ARG_OF_PERICENTER":84.0532,"MEAN_ANOMALY":276.059,"EPHEMERIS_TYPE":0,"CLASSIFICATION_TYPE":"U","NORAD_CAT_ID":53804,"ELEMENT_SET_NO":999,"REV_AT_EPOCH":4075,"BSTAR":-2.6659e-5,"MEAN_MOTION_DOT":-7.12e-6,"MEAN_MOTION_DDOT":0},{"OBJECT_NAME":"STARLINK-4763","OBJECT_ID":"2022-111AJ","EPOCH":"2023-05-30T05:02:48.105600","MEAN_MOTION":15.08838085,"ECCENTRICITY":0.0001305,"INCLINATION":53.2171,"RA_OF_ASC_NODE":123.3745,"ARG_OF_PERICENTER":91.9878,"MEAN_ANOMALY":268.1263,"EPHEMERIS_TYPE":0,"CLASSIFICATION_TYPE":"U","NORAD_CAT_ID":53805,"ELEMENT_SET_NO":999,"REV_AT_EPOCH":4006,"BSTAR":-2.9112e-5,"MEAN_MOTION_DOT":-7.51e-6,"MEAN_MOTION_DDOT":0},{"OBJECT_NAME":"STARLINK-4768","OBJECT_ID":"2022-111AK","EPOCH":"2023-05-30T04:30:57.712608","MEAN_MOTION":15.0883979,"ECCENTRICITY":0.000134,"INCLINATION":53.2166,"RA_OF_ASC_NODE":123.24,"ARG_OF_PERICENTER":83.0685,"MEAN_ANOMALY":277.046,"EPHEMERIS_TYPE":0,"CLASSIFICATION_TYPE":"U","NORAD_CAT_ID":53806,"ELEMENT_SET_NO":999,"REV_AT_EPOCH":4087,"BSTAR":2.3891e-5,"MEAN_MOTION_DOT":9.2e-7,"MEAN_MOTION_DDOT":0},{"OBJECT_NAME":"BLUEWALKER 3","OBJECT_ID":"2022-111AL","EPOCH":"2023-05-30T06:40:01.615872","MEAN_MOTION":15.20716088,"ECCENTRICITY":0.0012941,"INCLINATION":53.1965,"RA_OF_ASC_NODE":155.1995,"ARG_OF_PERICENTER":358.2084,"MEAN_ANOMALY":1.8865,"EPHEMERIS_TYPE":0,"CLASSIFICATION_TYPE":"U","NORAD_CAT_ID":53807,"ELEMENT_SET_NO":999,"REV_AT_EPOCH":3972,"BSTAR":0.00017437,"MEAN_MOTION_DOT":3.562e-5,"MEAN_MOTION_DDOT":0},{"OBJECT_NAME":"CHINASAT 1E (ZX 1E)","OBJECT_ID":"2022-112A","EPOCH":"2023-05-30T13:10:42.645216","MEAN_MOTION":1.00273464,"ECCENTRICITY":0.0003032,"INCLINATION":0.8595,"RA_OF_ASC_NODE":278.0144,"ARG_OF_PERICENTER":147.7703,"MEAN_ANOMALY":101.1038,"EPHEMERIS_TYPE":0,"CLASSIFICATION_TYPE":"U","NORAD_CAT_ID":53813,"ELEMENT_SET_NO":999,"REV_AT_EPOCH":268,"BSTAR":0,"MEAN_MOTION_DOT":-1.32e-6,"MEAN_MOTION_DDOT":0},{"OBJECT_NAME":"STRIX-1","OBJECT_ID":"2022-113A","EPOCH":"2023-05-30T14:13:03.814464","MEAN_MOTION":15.02948022,"ECCENTRICITY":0.0010781,"INCLINATION":97.6098,"RA_OF_ASC_NODE":202.0875,"ARG_OF_PERICENTER":139.097,"MEAN_ANOMALY":221.1066,"EPHEMERIS_TYPE":0,"CLASSIFICATION_TYPE":"U","NORAD_CAT_ID":53815,"ELEMENT_SET_NO":999,"REV_AT_EPOCH":3852,"BSTAR":0.0003622,"MEAN_MOTION_DOT":4.813e-5,"MEAN_MOTION_DDOT":0},{"OBJECT_NAME":"STARLINK-4749","OBJECT_ID":"2022-114A","EPOCH":"2023-05-30T08:27:55.067616","MEAN_MOTION":15.17186663,"ECCENTRICITY":0.0005727,"INCLINATION":53.2179,"RA_OF_ASC_NODE":174.709,"ARG_OF_PERICENTER":353.5302,"MEAN_ANOMALY":6.5619,"EPHEMERIS_TYPE":0,"CLASSIFICATION_TYPE":"U","NORAD_CAT_ID":53818,"ELEMENT_SET_NO":999,"REV_AT_EPOCH":3984,"BSTAR":0.00043559,"MEAN_MOTION_DOT":8.456e-5,"MEAN_MOTION_DDOT":0},{"OBJECT_NAME":"STARLINK-4738","OBJECT_ID":"2022-114B","EPOCH":"2023-05-30T09:19:13.705248","MEAN_MOTION":15.08834869,"ECCENTRICITY":0.0001077,"INCLINATION":53.2151,"RA_OF_ASC_NODE":177.6871,"ARG_OF_PERICENTER":88.6766,"MEAN_ANOMALY":271.435,"EPHEMERIS_TYPE":0,"CLASSIFICATION_TYPE":"U","NORAD_CAT_ID":53819,"ELEMENT_SET_NO":999,"REV_AT_EPOCH":3970,"BSTAR":1.1682e-5,"MEAN_MOTION_DOT":-1.02e-6,"MEAN_MOTION_DDOT":0},{"OBJECT_NAME":"STARLINK-4758","OBJECT_ID":"2022-114C","EPOCH":"2023-05-30T09:23:09.303360","MEAN_MOTION":15.08833523,"ECCENTRICITY":0.0001015,"INCLINATION":53.215,"RA_OF_ASC_NODE":177.7035,"ARG_OF_PERICENTER":91.0771,"MEAN_ANOMALY":269.0338,"EPHEMERIS_TYPE":0,"CLASSIFICATION_TYPE":"U","NORAD_CAT_ID":53820,"ELEMENT_SET_NO":999,"REV_AT_EPOCH":3970,"BSTAR":4.8435e-6,"MEAN_MOTION_DOT":-2.11e-6,"MEAN_MOTION_DDOT":0},{"OBJECT_NAME":"STARLINK-4752","OBJECT_ID":"2022-114D","EPOCH":"2023-05-30T08:09:36.253152","MEAN_MOTION":15.08836062,"ECCENTRICITY":0.0001202,"INCLINATION":53.2168,"RA_OF_ASC_NODE":122.526,"ARG_OF_PERICENTER":84.6722,"MEAN_ANOMALY":275.4407,"EPHEMERIS_TYPE":0,"CLASSIFICATION_TYPE":"U","NORAD_CAT_ID":53821,"ELEMENT_SET_NO":999,"REV_AT_EPOCH":4047,"BSTAR":-2.7867e-5,"MEAN_MOTION_DOT":-7.31e-6,"MEAN_MOTION_DDOT":0},{"OBJECT_NAME":"STARLINK-4748","OBJECT_ID":"2022-114F","EPOCH":"2023-05-30T08:44:01.817088","MEAN_MOTION":15.08835426,"ECCENTRICITY":0.0001139,"INCLINATION":53.2155,"RA_OF_ASC_NODE":132.5902,"ARG_OF_PERICENTER":82.3999,"MEAN_ANOMALY":277.7122,"EPHEMERIS_TYPE":0,"CLASSIFICATION_TYPE":"U","NORAD_CAT_ID":53823,"ELEMENT_SET_NO":999,"REV_AT_EPOCH":4033,"BSTAR":1.5227e-5,"MEAN_MOTION_DOT":-4.5e-7,"MEAN_MOTION_DDOT":0},{"OBJECT_NAME":"STARLINK-4757","OBJECT_ID":"2022-114G","EPOCH":"2023-05-30T07:31:51.089664","MEAN_MOTION":15.08834318,"ECCENTRICITY":0.0001193,"INCLINATION":53.2153,"RA_OF_ASC_NODE":177.9341,"ARG_OF_PERICENTER":84.1317,"MEAN_ANOMALY":275.9811,"EPHEMERIS_TYPE":0,"CLASSIFICATION_TYPE":"U","NORAD_CAT_ID":53824,"ELEMENT_SET_NO":999,"REV_AT_EPOCH":3960,"BSTAR":-1.0625e-5,"MEAN_MOTION_DOT":-4.57e-6,"MEAN_MOTION_DDOT":0},{"OBJECT_NAME":"STARLINK-4751","OBJECT_ID":"2022-114H","EPOCH":"2023-05-30T09:12:32.830848","MEAN_MOTION":15.08835537,"ECCENTRICITY":9.72e-5,"INCLINATION":53.2148,"RA_OF_ASC_NODE":177.6583,"ARG_OF_PERICENTER":85.5453,"MEAN_ANOMALY":274.565,"EPHEMERIS_TYPE":0,"CLASSIFICATION_TYPE":"U","NORAD_CAT_ID":53825,"ELEMENT_SET_NO":999,"REV_AT_EPOCH":3970,"BSTAR":1.1175e-5,"MEAN_MOTION_DOT":-1.1e-6,"MEAN_MOTION_DDOT":0},{"OBJECT_NAME":"STARLINK-4756","OBJECT_ID":"2022-114J","EPOCH":"2023-05-30T08:46:00.603264","MEAN_MOTION":15.08832823,"ECCENTRICITY":8.03e-5,"INCLINATION":53.2151,"RA_OF_ASC_NODE":177.5441,"ARG_OF_PERICENTER":94.5688,"MEAN_ANOMALY":265.5396,"EPHEMERIS_TYPE":0,"CLASSIFICATION_TYPE":"U","NORAD_CAT_ID":53826,"ELEMENT_SET_NO":999,"REV_AT_EPOCH":3970,"BSTAR":-5.8132e-6,"MEAN_MOTION_DOT":-3.8e-6,"MEAN_MOTION_DDOT":0},{"OBJECT_NAME":"STARLINK-4764","OBJECT_ID":"2022-114K","EPOCH":"2023-05-30T09:01:55.868448","MEAN_MOTION":15.08832101,"ECCENTRICITY":0.0001103,"INCLINATION":53.2148,"RA_OF_ASC_NODE":177.6132,"ARG_OF_PERICENTER":89.2605,"MEAN_ANOMALY":270.8514,"EPHEMERIS_TYPE":0,"CLASSIFICATION_TYPE":"U","NORAD_CAT_ID":53827,"ELEMENT_SET_NO":999,"REV_AT_EPOCH":3970,"BSTAR":-2.4572e-6,"MEAN_MOTION_DOT":-3.27e-6,"MEAN_MOTION_DDOT":0},{"OBJECT_NAME":"STARLINK-4760","OBJECT_ID":"2022-114L","EPOCH":"2023-05-30T10:16:05.399328","MEAN_MOTION":15.0883244,"ECCENTRICITY":8.58e-5,"INCLINATION":53.2151,"RA_OF_ASC_NODE":177.2255,"ARG_OF_PERICENTER":77.7814,"MEAN_ANOMALY":282.3274,"EPHEMERIS_TYPE":0,"CLASSIFICATION_TYPE":"U","NORAD_CAT_ID":53828,"ELEMENT_SET_NO":999,"REV_AT_EPOCH":3971,"BSTAR":-3.2064e-5,"MEAN_MOTION_DOT":-7.98e-6,"MEAN_MOTION_DDOT":0},{"OBJECT_NAME":"STARLINK-4759","OBJECT_ID":"2022-114M","EPOCH":"2023-05-30T08:56:39.878592","MEAN_MOTION":15.08806406,"ECCENTRICITY":0.0001072,"INCLINATION":53.2159,"RA_OF_ASC_NODE":177.592,"ARG_OF_PERICENTER":86.8214,"MEAN_ANOMALY":273.2901,"EPHEMERIS_TYPE":0,"CLASSIFICATION_TYPE":"U","NORAD_CAT_ID":53829,"ELEMENT_SET_NO":999,"REV_AT_EPOCH":3970,"BSTAR":-0.00016745,"MEAN_MOTION_DOT":-2.949e-5,"MEAN_MOTION_DDOT":0}]
